start=new Date('2022-03-29T00:00:00.000Z').valueOf();
sats=[{"OBJECT_TYPE":"PAYLOAD","ARG_OF_PERICENTER":"271.2120","DECAY_DATE":null,"CLASSIFICATION_TYPE":"U","NORAD_CAT_ID":"49136","RCS_SIZE":"LARGE","FILE":"3378342","TIME_SYSTEM":"UTC","TLE_LINE1":"1 49136U 21082G   22087.91667824  .00012839  00000-0  11278-2 0  9992","REV_AT_EPOCH":"357","ECCENTRICITY":"0.00030280","LAUNCH_DATE":"2021-09-14","PERIOD":"96.211","ELEMENT_SET_NO":"999","PERIAPSIS":"574.962","OBJECT_NAME":"STARLINK-3084","INCLINATION":"69.9993","BSTAR":"0.00112780000000","COUNTRY_CODE":"US","SITE":"AFWTR","MEAN_ANOMALY":"146.4014","SEMIMAJOR_AXIS":"6955.204","EPHEMERIS_TYPE":"0","GP_ID":"199944822","CENTER_NAME":"EARTH","RA_OF_ASC_NODE":"308.7019","APOAPSIS":"579.175","MEAN_ELEMENT_THEORY":"SGP4","REF_FRAME":"TEME","MEAN_MOTION_DDOT":"0.0000000000000","EPOCH":"2022-03-28T22:00:00.999936","TLE_LINE2":"2 49136  69.9993 308.7019 0003028 271.2120 146.4014 14.96711167  3574","MEAN_MOTION_DOT":"0.00012839","MEAN_MOTION":"14.96711167","OBJECT_ID":"2021-082G"},{"REF_FRAME":"TEME","MEAN_MOTION_DDOT":"0.0000000000000","EPOCH":"2022-03-28T22:00:00.999936","TLE_LINE2":"2 49137  69.9962 308.7290 0003085 279.2550 156.3442 14.96715090  3574","MEAN_MOTION_DOT":"0.00012704","MEAN_MOTION":"14.96715090","OBJECT_ID":"2021-082H","BSTAR":"0.00111590000000","COUNTRY_CODE":"US","SITE":"AFWTR","MEAN_ANOMALY":"156.3442","SEMIMAJOR_AXIS":"6955.191","EPHEMERIS_TYPE":"0","GP_ID":"199945072","CENTER_NAME":"EARTH","RA_OF_ASC_NODE":"308.7290","APOAPSIS":"579.202","MEAN_ELEMENT_THEORY":"SGP4","TLE_LINE1":"1 49137U 21082H   22087.91667824  .00012704  00000-0  11159-2 0  9992","REV_AT_EPOCH":"357","ECCENTRICITY":"0.00030850","LAUNCH_DATE":"2021-09-14","PERIOD":"96.211","ELEMENT_SET_NO":"999","PERIAPSIS":"574.911","OBJECT_NAME":"STARLINK-3055","INCLINATION":"69.9962","OBJECT_TYPE":"PAYLOAD","DECAY_DATE":null,"ARG_OF_PERICENTER":"279.2550","CLASSIFICATION_TYPE":"U","NORAD_CAT_ID":"49137","RCS_SIZE":"LARGE","FILE":"3378342","TIME_SYSTEM":"UTC"},{"OBJECT_NAME":"STARLINK-3058","INCLINATION":"70.0020","PERIAPSIS":"569.769","ELEMENT_SET_NO":"999","PERIOD":"96.106","LAUNCH_DATE":"2021-09-14","ECCENTRICITY":"0.00032380","TLE_LINE1":"1 49138U 21082J   22087.91667824 -.00015531  00000-0 -12963-2 0  9990","REV_AT_EPOCH":"357","TIME_SYSTEM":"UTC","FILE":"3378342","CLASSIFICATION_TYPE":"U","NORAD_CAT_ID":"49138","RCS_SIZE":"LARGE","OBJECT_TYPE":"PAYLOAD","DECAY_DATE":null,"ARG_OF_PERICENTER":"275.2998","OBJECT_ID":"2021-082J","MEAN_MOTION":"14.98342585","MEAN_MOTION_DOT":"-0.00015531","TLE_LINE2":"2 49138  70.0020 329.6695 0003238 275.2998 190.4892 14.98342585  3571","EPOCH":"2022-03-28T22:00:00.999936","REF_FRAME":"TEME","MEAN_MOTION_DDOT":"0.0000000000000","APOAPSIS":"574.269","MEAN_ELEMENT_THEORY":"SGP4","RA_OF_ASC_NODE":"329.6695","GP_ID":"199945824","CENTER_NAME":"EARTH","EPHEMERIS_TYPE":"0","SEMIMAJOR_AXIS":"6950.154","MEAN_ANOMALY":"190.4892","COUNTRY_CODE":"US","BSTAR":"-0.00129630000000","SITE":"AFWTR"},{"MEAN_MOTION_DDOT":"0.0000000000000","REF_FRAME":"TEME","TLE_LINE2":"2 49139  69.9997 296.5293 0003740 249.5175 290.7177 15.69815181  3685","EPOCH":"2022-03-28T22:00:00.999936","MEAN_MOTION":"15.69815181","MEAN_MOTION_DOT":"-0.00129452","OBJECT_ID":"2021-082K","MEAN_ANOMALY":"290.7177","SITE":"AFWTR","BSTAR":"-0.00109630000000","COUNTRY_CODE":"US","EPHEMERIS_TYPE":"0","SEMIMAJOR_AXIS":"6737.563","RA_OF_ASC_NODE":"296.5293","CENTER_NAME":"EARTH","GP_ID":"199945574","MEAN_ELEMENT_THEORY":"SGP4","APOAPSIS":"361.948","ECCENTRICITY":"0.00037400","REV_AT_EPOCH":"368","TLE_LINE1":"1 49139U 21082K   22087.91667824 -.00129452  00000-0 -10963-2 0  9997","PERIOD":"91.731","LAUNCH_DATE":"2021-09-14","ELEMENT_SET_NO":"999","INCLINATION":"69.9997","OBJECT_NAME":"STARLINK-3057","PERIAPSIS":"356.908","RCS_SIZE":"LARGE","NORAD_CAT_ID":"49139","CLASSIFICATION_TYPE":"U","DECAY_DATE":null,"ARG_OF_PERICENTER":"249.5175","OBJECT_TYPE":"PAYLOAD","FILE":"3378342","TIME_SYSTEM":"UTC"},{"SEMIMAJOR_AXIS":"6737.830","EPHEMERIS_TYPE":"0","COUNTRY_CODE":"US","BSTAR":"0.00031618000000","SITE":"AFWTR","MEAN_ANOMALY":"292.0456","APOAPSIS":"362.038","MEAN_ELEMENT_THEORY":"SGP4","GP_ID":"199944322","CENTER_NAME":"EARTH","RA_OF_ASC_NODE":"296.5231","EPOCH":"2022-03-28T22:00:00.999936","TLE_LINE2":"2 49140  69.9989 296.5231 0003478 254.6351 292.0456 15.69721834  3687","REF_FRAME":"TEME","MEAN_MOTION_DDOT":"0.0000000000000","OBJECT_ID":"2021-082L","MEAN_MOTION_DOT":"0.00037660","MEAN_MOTION":"15.69721834","OBJECT_TYPE":"PAYLOAD","ARG_OF_PERICENTER":"254.6351","DECAY_DATE":null,"CLASSIFICATION_TYPE":"U","NORAD_CAT_ID":"49140","RCS_SIZE":"LARGE","TIME_SYSTEM":"UTC","FILE":"3378342","LAUNCH_DATE":"2021-09-14","PERIOD":"91.736","TLE_LINE1":"1 49140U 21082L   22087.91667824  .00037660  00000-0  31618-3 0  9997","REV_AT_EPOCH":"368","ECCENTRICITY":"0.00034780","PERIAPSIS":"357.351","OBJECT_NAME":"STARLINK-3118","INCLINATION":"69.9989","ELEMENT_SET_NO":"999"},{"MEAN_ANOMALY":"211.8684","SITE":"AFWTR","BSTAR":"-0.00061876000000","COUNTRY_CODE":"US","EPHEMERIS_TYPE":"0","SEMIMAJOR_AXIS":"6950.132","RA_OF_ASC_NODE":"329.6698","CENTER_NAME":"EARTH","GP_ID":"199944572","MEAN_ELEMENT_THEORY":"SGP4","APOAPSIS":"574.206","MEAN_MOTION_DDOT":"0.0000000000000","REF_FRAME":"TEME","TLE_LINE2":"2 49141  70.0021 329.6698 0003179 279.5261 211.8684 14.98349800  3577","EPOCH":"2022-03-28T22:00:00.999936","MEAN_MOTION_DOT":"-0.00007472","MEAN_MOTION":"14.98349800","OBJECT_ID":"2021-082M","RCS_SIZE":"LARGE","NORAD_CAT_ID":"49141","CLASSIFICATION_TYPE":"U","ARG_OF_PERICENTER":"279.5261","DECAY_DATE":null,"OBJECT_TYPE":"PAYLOAD","FILE":"3378342","TIME_SYSTEM":"UTC","ECCENTRICITY":"0.00031790","REV_AT_EPOCH":"357","TLE_LINE1":"1 49141U 21082M   22087.91667824 -.00007472  00000-0 -61876-3 0  9997","PERIOD":"96.106","LAUNCH_DATE":"2021-09-14","ELEMENT_SET_NO":"999","INCLINATION":"70.0021","OBJECT_NAME":"STARLINK-3093","PERIAPSIS":"569.787"},{"PERIAPSIS":"357.305","INCLINATION":"70.0002","OBJECT_NAME":"STARLINK-3042","ELEMENT_SET_NO":"999","LAUNCH_DATE":"2021-09-14","PERIOD":"91.737","REV_AT_EPOCH":"368","TLE_LINE1":"1 49142U 21082N   22087.91667824  .00070699  00000-0  59025-3 0  9990","ECCENTRICITY":"0.00036480","TIME_SYSTEM":"UTC","FILE":"3378342","ARG_OF_PERICENTER":"250.1505","DECAY_DATE":null,"OBJECT_TYPE":"PAYLOAD","RCS_SIZE":"LARGE","NORAD_CAT_ID":"49142","CLASSIFICATION_TYPE":"U","OBJECT_ID":"2021-082N","MEAN_MOTION":"15.69698141","MEAN_MOTION_DOT":"0.00070699","EPOCH":"2022-03-28T22:00:00.999936","TLE_LINE2":"2 49142  70.0002 296.5157 0003648 250.1505 298.6573 15.69698141  3682","MEAN_MOTION_DDOT":"0.0000000000000","REF_FRAME":"TEME","MEAN_ELEMENT_THEORY":"SGP4","APOAPSIS":"362.221","CENTER_NAME":"EARTH","GP_ID":"199945324","RA_OF_ASC_NODE":"296.5157","SEMIMAJOR_AXIS":"6737.898","EPHEMERIS_TYPE":"0","SITE":"AFWTR","BSTAR":"0.00059025000000","COUNTRY_CODE":"US","MEAN_ANOMALY":"298.6573"},{"MEAN_MOTION":"14.96731481","MEAN_MOTION_DOT":"-0.00018358","OBJECT_ID":"2021-082P","REF_FRAME":"TEME","MEAN_MOTION_DDOT":"0.0000000000000","TLE_LINE2":"2 49143  69.9960 308.7274 0003124 279.6410 181.9815 14.96731481  3574","EPOCH":"2022-03-28T22:00:00.999936","RA_OF_ASC_NODE":"308.7274","GP_ID":"199946075","CENTER_NAME":"EARTH","APOAPSIS":"579.178","MEAN_ELEMENT_THEORY":"SGP4","MEAN_ANOMALY":"181.9815","COUNTRY_CODE":"US","BSTAR":"-0.00159940000000","SITE":"AFWTR","EPHEMERIS_TYPE":"0","SEMIMAJOR_AXIS":"6955.141","ELEMENT_SET_NO":"999","OBJECT_NAME":"STARLINK-3109","INCLINATION":"69.9960","PERIAPSIS":"574.833","ECCENTRICITY":"0.00031240","TLE_LINE1":"1 49143U 21082P   22087.91667824 -.00018358  00000-0 -15994-2 0  9993","REV_AT_EPOCH":"357","PERIOD":"96.210","LAUNCH_DATE":"2021-09-14","FILE":"3378342","TIME_SYSTEM":"UTC","CLASSIFICATION_TYPE":"U","NORAD_CAT_ID":"49143","RCS_SIZE":"LARGE","OBJECT_TYPE":"PAYLOAD","DECAY_DATE":null,"ARG_OF_PERICENTER":"279.6410"},{"DECAY_DATE":null,"ARG_OF_PERICENTER":"282.2652","OBJECT_TYPE":"PAYLOAD","RCS_SIZE":"LARGE","NORAD_CAT_ID":"49144","CLASSIFICATION_TYPE":"U","TIME_SYSTEM":"UTC","FILE":"3378342","LAUNCH_DATE":"2021-09-14","PERIOD":"96.106","REV_AT_EPOCH":"357","TLE_LINE1":"1 49144U 21082Q   22087.91667824 -.00018279  00000-0 -15276-2 0  9999","ECCENTRICITY":"0.00033450","PERIAPSIS":"569.692","INCLINATION":"70.0029","OBJECT_NAME":"STARLINK-3100","ELEMENT_SET_NO":"999","SEMIMAJOR_AXIS":"6950.152","EPHEMERIS_TYPE":"0","SITE":"AFWTR","COUNTRY_CODE":"US","BSTAR":"-0.00152760000000","MEAN_ANOMALY":"234.9611","MEAN_ELEMENT_THEORY":"SGP4","APOAPSIS":"574.341","CENTER_NAME":"EARTH","GP_ID":"199944823","RA_OF_ASC_NODE":"329.6770","EPOCH":"2022-03-28T22:00:00.999936","TLE_LINE2":"2 49144  70.0029 329.6770 0003345 282.2652 234.9611 14.98343336  3573","MEAN_MOTION_DDOT":"0.0000000000000","REF_FRAME":"TEME","OBJECT_ID":"2021-082Q","MEAN_MOTION":"14.98343336","MEAN_MOTION_DOT":"-0.00018279"},{"OBJECT_ID":"2021-082R","MEAN_MOTION_DOT":"-0.00033651","MEAN_MOTION":"15.69741379","TLE_LINE2":"2 49145  69.9999 296.5055 0003834 251.6362 307.8091 15.69741379  3688","EPOCH":"2022-03-28T22:00:00.999936","REF_FRAME":"TEME","MEAN_MOTION_DDOT":"0.0000000000000","APOAPSIS":"362.222","MEAN_ELEMENT_THEORY":"SGP4","RA_OF_ASC_NODE":"296.5055","GP_ID":"199945073","CENTER_NAME":"EARTH","EPHEMERIS_TYPE":"0","SEMIMAJOR_AXIS":"6737.774","MEAN_ANOMALY":"307.8091","COUNTRY_CODE":"US","BSTAR":"-0.00028130000000","SITE":"AFWTR","OBJECT_NAME":"STARLINK-3119","INCLINATION":"69.9999","PERIAPSIS":"357.056","ELEMENT_SET_NO":"999","PERIOD":"91.735","LAUNCH_DATE":"2021-09-14","ECCENTRICITY":"0.00038340","TLE_LINE1":"1 49145U 21082R   22087.91667824 -.00033651  00000-0 -28130-3 0  9995","REV_AT_EPOCH":"368","TIME_SYSTEM":"UTC","FILE":"3378342","CLASSIFICATION_TYPE":"U","NORAD_CAT_ID":"49145","RCS_SIZE":"LARGE","OBJECT_TYPE":"PAYLOAD","ARG_OF_PERICENTER":"251.6362","DECAY_DATE":null}];
